ENDUROSAT ONE           
1 43551U 98067NZ  20289.40008140  .12819970  12606-4  34454-3 0  9995
2 43551  51.6143   6.3935 0004068 320.9805  39.0930 16.45548142129489
EQUISAT                 
1 43552U 98067PA  20293.53283452  .00066834  00000-0  29168-3 0  9993
2 43552  51.6302   7.4913 0002108 304.4888  55.5916 15.84086165129803
AEROCUBE 12A            
1 43556U 18046C   20293.28018590  .00001612  00000-0  66617-4 0  9991
2 43556  51.6412 230.4297 0008561  23.9932 336.1446 15.30195952126331
AEROCUBE 12B            
1 43557U 18046D   20293.23491657  .00002244  00000-0  88747-4 0  9996
2 43557  51.6418 231.6109 0008473  22.7398 337.3956 15.29861200126263
UITMSAT-1               
1 43589U 98067PD  20294.43481304  .00169811  22167-4  46413-3 0  9992
2 43589  51.6304 356.0042 0005193 354.4393   5.6556 15.93716880125776
MAYA-1                  
1 43590U 98067PE  20294.42624010  .00170893  22313-4  46610-3 0  9990
2 43590  51.6255 355.8730 0005041 357.0688   3.0289 15.93755679125709
BHUTAN-1                
1 43591U 98067PF  20294.44110689  .00179955  23628-4  47531-3 0  9996
2 43591  51.6309 355.3840 0005358 357.3940   2.7039 15.94336589125718
SIRIUSSAT-1             
1 43595U 98067PG  20294.43913987  .00059539  00000-0  23108-3 0  9995
2 43595  51.6269   4.3046 0005449   4.2529 355.9386 15.86554298124771
SIRIUSSAT-2             
1 43596U 98067PH  20294.44599186  .00112518  00000-0  43069-3 0  9993
2 43596  51.6239   5.1817 0002718  43.9018 316.1267 15.86606942124763
SURFSAT                 
1 43614U 18070B   20293.88538251  .00003818  00000-0  96213-4 0  9995
2 43614  93.0293 206.1100 0013329 205.9000 154.1589 15.39850627117626
CP7 (DAVE)              
1 43615U 18070C   20293.86483246  .00003534  00000-0  89608-4 0  9992
2 43615  93.0296 206.0838 0013481 205.9155 154.1426 15.39668331117615
ELFIN-B                 
1 43616U 18070D   20293.85084257  .00005655  00000-0  13565-3 0  9995
2 43616  93.0254 206.0671 0013635 206.6780 153.3775 15.41318091117670
ELFIN-A                 
1 43617U 18070E   20293.86680086  .00005653  00000-0  13446-3 0  9995
2 43617  93.0308 206.6922 0013220 202.1556 157.9130 15.41577758117681
CUBEBEL-1 (BSUSAT-1)    
1 43666U 18083E   20294.51974499  .00001039  00000-0  53637-4 0  9991
2 43666  97.4811 319.7124 0013370 288.2371 176.4443 15.18492879109596
CICERO 10               
1 43690U 18088A   20293.69502820  .00001193  00000-0  52801-4 0  9999
2 43690  85.0404 356.4534 0013770 206.3289 153.7254 15.20435534107617
IRVINE01                
1 43693U 18088D   20293.46564252  .00003059  00000-0  12635-3 0  9997
2 43693  85.0373 354.8982 0017389 186.7269 173.3743 15.23427777107729
PROXIMA I               
1 43694U 18088E   20293.47889770  .00001145  00000-0  47898-4 0  9998
2 43694  85.0346 354.8154 0019033 180.3238 179.7995 15.22183112107703
PROXIMA II              
1 43696U 18088G   20293.21404984  .00001123  00000-0  46931-4 0  9995
2 43696  85.0346 354.9955 0019037 181.2397 178.8802 15.22183195107668
FACSAT-1                
1 43721U 18096C   20294.49664032  .00001635  00000-0  63160-4 0  9997
2 43721  97.4116   7.3500 0018560  44.6068  82.8144 15.27568350105476
CENTAURI-2              
1 43722U 18096D   20293.86287301  .00002782  00000-0  10348-3 0  9991
2 43722  97.4120   7.1257 0018418  46.7600 313.5174 15.28212452105394
INNOSAT-2               
1 43738U 18096V   20294.48003494  .00003154  00000-0  10711-3 0  9994
2 43738  97.4156  10.2512 0024057  48.5848  74.6490 15.30980347105652
SIRION PATHFINDER-2     
1 43759U 18099B   20293.71040127 -.00000257  00000-0 -18085-4 0  9995
2 43759  97.6958   3.1804 0015479 124.5352 235.7330 14.95332376102502
CORVUS-BC 4             
1 43767U 18099K   20293.76467267  .00000626  00000-0  62688-4 0  9993
2 43767  97.6936   2.5075 0013110 128.1682 232.0726 14.94778103102472
MOVE-II                 
1 43780U 18099Y   20293.91160350  .00000143  00000-0  18068-4 0  9995
2 43780  97.6955   3.3536 0014538 135.1426 225.0973 14.95520324102510
SPACEBEE-7              
1 43816U 18099BL  20293.89420636  .00000678  00000-0  65806-4 0  9993
2 43816  97.6971   3.8026 0014825 120.1723 240.0969 14.95795991102099
SPACEBEE-5              
1 43817U 18099BM  20293.85851766  .00001007  00000-0  93514-4 0  9996
2 43817  97.7028   4.4312 0014296 121.5914 238.6705 14.96537693102116
SPACEBEE-6              
1 43818U 18099BN  20293.77339441  .00000305  00000-0  32215-4 0  9990
2 43818  97.6990   3.8892 0014611 120.5206 239.7460 14.96025429102236
SHIELDS 1               
1 43850U 18104B   20293.70795209  .00000640  00000-0  26590-4 0  9995
2 43850  85.0262  93.1989 0014036 342.3270  17.7481 15.21491001102363
STF-1                   
1 43852U 18104D   20293.72448387  .00001491  00000-0  64320-4 0  9999
2 43852  85.0303  93.8035 0014316 357.2382   2.8777 15.21524620102345
ZACUBE-2                
1 43907U 18111AH  20294.43550056  .00000637  00000-0  28392-4 0  9994
2 43907  97.2514 190.3405 0023206  63.2679  53.7103 15.24720265101051
LUME 1                  
1 43908U 18111AJ  20293.77249832  .00001365  00000-0  56682-4 0  9990
2 43908  97.2515 189.9646 0022775  65.4177 294.9431 15.25283460100976
AOBA VELOX-IV           
1 43940U 19003J   20293.76952956  .00002386  00000-0  96348-4 0  9991
2 43940  97.2137 340.7184 0024749 140.3292 219.9763 15.25446880 97595
CATSAT-2                
1 44029U 98067PV  20293.77669415  .00034056  00000-0  27949-3 0  9992
2 44029  51.6395  43.9624 0002816 222.3295 137.7486 15.70125589 98028
DELPHINI                
1 44030U 98067PW  20293.75594002  .00039355  00000-0  29817-3 0  9994
2 44030  51.6335  41.3847 0002222 230.4806 129.5996 15.71969260 98020
UNITE                   
1 44031U 98067PX  20294.41530055  .00018267  00000-0  19555-3 0  9994
2 44031  51.6382  51.1982 0002301 191.4040 168.6903 15.63917984 97956
CATSAT-1                
1 44033U 98067PZ  20293.77654993  .00032894  00000-0  27023-3 0  9993
2 44033  51.6396  43.9711 0002693 222.8057 137.2731 15.70119270 97932
RAAVANA-1               
1 44329U 98067QE  20293.67256697  .00016992  00000-0  20672-3 0  9993
2 44329  51.6395  70.3210 0005107 109.0212 251.1335 15.60652653 76387
UGUISU                  
1 44330U 98067QF  20293.43686103  .00016334  00000-0  19993-3 0  9992
2 44330  51.6367  71.7119 0005061 107.9670 252.1875 15.60526139 76328
NEPALISAT-1             
1 44331U 98067QG  20293.40766951  .00017268  00000-0  20996-3 0  9992
2 44331  51.6366  71.5193 0005077 110.9681 249.1856 15.60653168 76330
SPOOQY-1                
1 44332U 98067QH  20293.80487067  .00018942  00000-0  23099-3 0  9992
2 44332  51.6379  69.6814 0004214 115.0025 245.1407 15.60506286 76351
SPACEBEE-9              
1 44370U 19037F   20293.86354975  .00012390  00000-0  25899-3 0  9992
2 44370  45.0041 139.2044 0014008 206.1915 153.8267 15.45485141 73835
SPACEBEE-8              
1 44371U 19037G   20293.71542116  .00027197  00000-0  44403-3 0  9996
2 44371  45.0044 128.8222 0013189 217.7756 142.2212 15.52043592 73921
IOD-1 GEMS              
1 44385U 98067QK  20293.79510293  .00038250  00000-0  38558-3 0  9996
2 44385  51.6389  65.1833 0001517  41.3498 318.7612 15.64993757 73922
MOVE-IIB                
1 44398U 19038N   20293.93317670  .00001683  00000-0  99395-4 0  9998
2 44398  97.5489 253.6883 0026731  59.8163 300.5710 15.12607321 71392
SONATE                  
1 44400U 19038Q   20293.93719581  .00000854  00000-0  53080-4 0  9999
2 44400  97.5537 253.6945 0026794  59.2429 301.1436 15.12080412 71384
LUCKY-7                 
1 44406U 19038W   20293.46704496  .00000829  00000-0  51218-4 0  9995
2 44406  97.5550 253.3773 0026042  60.6745 299.7083 15.12369406 71310
BEESAT 9                
1 44412U 19038AC  20293.45737843  .00001167  00000-0  70391-4 0  9992
2 44412  97.5539 253.3516 0024220  66.0780 294.2984 15.12498918 71012
JAISAT-1                
1 44419U 19038F   20293.70258994  .00001251  00000-0  74255-4 0  9999
2 44419  97.5541 253.9533 0023038  64.3287 296.0319 15.12984007 71387
SWIATOWID               
1 44426U 98067QL  20294.42962889  .00040400  00000-0  37725-3 0  9990
2 44426  51.6389  60.1511 0001985  39.0364  68.1534 15.66882609 74061
KRAKSAT                 
1 44427U 98067QM  20294.39580815  .00011352  00000-0  15532-3 0  9998
2 44427  51.6410  71.9915 0003240  67.0346  31.1423 15.57932656 73943
VCC A                   
1 44428U 98067QN  20293.91251705  .00018038  00000-0  22564-3 0  9990
2 44428  51.6395  71.2234 0002147  81.9532 278.1705 15.59876362 73916
ENTRYSAT                
1 44429U 98067QP  20292.63063455  .00019147  00000-0  22526-3 0  9992
2 44429  51.6376  75.3651 0001693  69.2409 290.8766 15.61442934 73747
VCC C                   
1 44430U 98067QQ  20292.67660421  .00024680  00000-0  26592-3 0  9999
2 44430  51.6374  72.6782 0001084  87.3419 272.7699 15.63540020 72603
VCC B                   
1 44431U 98067QR  20294.42008849  .00018704  00000-0  23279-3 0  9994
2 44431  51.6379  68.5819 0002263  81.4550 278.6699 15.59982735 73935
ATL-1                   
1 44830U 19084G   20283.37625441  .14504533  23319-5  28099-3 0  9997
2 44830  96.9282 155.2233 0011473 239.9810 120.0357 16.46538413 48546
SMOG-P                  
1 44832U 19084J   20272.06303716  .11453400  23230-5  63587-3 0  9997
2 44832  96.9437 144.0914 0010614 231.8961 128.1384 16.41416157 46773
DUCHIFAT-3              
1 44854U 19089C   20294.44796684  .00000422  00000-0  40468-4 0  9991
2 44854  36.9658  79.6130 0009564 349.2351  10.8196 14.99159257 47065
EYESAT-NANO             
1 44877U 19092E   20293.74885065  .00001274  00000-0  67673-4 0  9997
2 44877  97.4572 115.0325 0012435 311.4652  48.5513 15.17062107 46433
ORBITAL FACTORY 2 (OF-2)
1 45113U 19071C   20293.81964044  .00002730  00000-0  93449-4 0  9999
2 45113  51.6415 122.5797 0013376 143.7624 216.4266 15.33830431 40213
